[{"OBJECT_NAME":"ARVAKER-2","OBJECT_ID":"2025-135AR","EPOCH":"2026-03-09T22:22:52.921344","MEAN_MOTION":14.93083026,"ECCENTRICITY":1.249e-5,"INCLINATION":97.761,"RA_OF_ASC_NODE":184.2957,"ARG_OF_PERICENTER":109.4722,"MEAN_ANOMALY":250.6511,"EPHEMERIS_TYPE":0,"CLASSIFICATION_TYPE":"U","NORAD_CAT_ID":64567,"ELEMENT_SET_NO":999,"REV_AT_EPOCH":3906,"BSTAR":0.00042135986,"MEAN_MOTION_DOT":4.333e-5,"MEAN_MOTION_DDOT":0},{"OBJECT_NAME":"SHIKONGXING 01","OBJECT_ID":"2025-214A","EPOCH":"2026-03-09T23:27:22.281408","MEAN_MOTION":14.92356791,"ECCENTRICITY":0.00132612,"INCLINATION":49.9863,"RA_OF_ASC_NODE":40.3934,"ARG_OF_PERICENTER":224.4244,"MEAN_ANOMALY":135.5635,"EPHEMERIS_TYPE":0,"CLASSIFICATION_TYPE":"U","NORAD_CAT_ID":65712,"ELEMENT_SET_NO":999,"REV_AT_EPOCH":2488,"BSTAR":0.00036752052,"MEAN_MOTION_DOT":3.562e-5,"MEAN_MOTION_DDOT":0}]
